NUSAT-49 (KLARA DAN VO*)
1 60500U 24149AJ  26140.20921772  .00006226  00000+0  21712-3 0  9995
2 60500  97.3776 221.6877 0003313  69.0348 291.1246 15.29978237 97852
FLOCK 4BE-11            
1 60501U 24149AK  26140.22234406  .00013561  00000+0  32032-3 0  9996
2 60501  97.3698 224.0723 0003750  40.8313 319.3214 15.41964299 98044
YAM-7                   
1 60504U 24149AN  26140.22539616  .00005281  00000+0  17676-3 0  9997
2 60504  97.3782 220.5974 0004407  55.0497 305.1158 15.31388305 97777
FLOCK 4BE-24            
1 60505U 24149AP  26140.27426112  .00014382  00000+0  33995-3 0  9993
2 60505  97.3714 224.3733 0003931  49.5190 310.6399 15.41929053 98060
LUR-1                   
1 60506U 24149AQ  26140.18463742  .00004800  00000+0  16945-3 0  9994
2 60506  97.3740 219.2240 0005267  59.9899 300.1864 15.29697074 97691
TANAGER-1               
1 60507U 24149AR  26140.30629154  .00011358  00000+0  24562-3 0  9990
2 60507  97.3103 234.4878 0005516  53.5239 306.6518 15.44636580 98731
EAGLEEYE                
1 60508U 24149AS  26140.22427356  .00060898  00000+0  59504-3 0  9999
2 60508  97.3727 232.1279 0001241   7.4779 352.6499 15.65988359 98558
FLOCK 4BE-29            
1 60509U 24149AT  26140.17599398  .00013158  00000+0  29903-3 0  9997
2 60509  97.3807 225.6489 0003451  65.3710 294.7897 15.43133815 98093
TRANSPORTER-11 OBJECT AU
1 60510U 24149AU  26140.17897900  .00011144  00000+0  28720-3 0  9998
2 60510  97.3729 223.6942 0004273  51.5114 308.6515 15.39362133 98003
FLOCK 4BE-2             
1 60511U 24149AV  26140.19025048  .00041252  00000+0  74577-3 0  9991
2 60511  97.3820 226.7563 0002912  58.8073 301.3464 15.49582575 98166
FLOCK 4BE-13            
1 60512U 24149AW  26140.17753455  .00010224  00000+0  24943-3 0  9997
2 60512  97.3720 224.3158 0004090  32.0764 328.0731 15.41059384 98050
FLOCK 4BE-27            
1 60513U 24149AX  26140.21355485  .00006480  00000+0  19994-3 0  9993
2 60513  97.3824 222.0627 0004874  60.3099 299.8628 15.33907482 97856
FLOCK 4BE-9             
1 60514U 24149AY  26140.22101482  .00011685  00000+0  29602-3 0  9991
2 60514  97.3788 224.2411 0003564  66.0699 294.0920 15.39877453 98016
FLOCK 4BE-6             
1 60516U 24149BA  26140.22841061  .00011156  00000+0  29334-3 0  9992
2 60516  97.3788 223.6579 0004219  60.0698 300.0966 15.38742649 97976
FLOCK 4BE-14            
1 60517U 24149BB  26140.17176755  .00012424  00000+0  31281-3 0  9991
2 60517  97.3695 223.7146 0004986  55.6424 304.5294 15.40044707 98015
FLOCK 4BE-1             
1 60518U 24149BC  26140.21625421  .00012512  00000+0  29958-3 0  9992
2 60518  97.3779 224.9384 0004558  55.6325 304.5352 15.41573054 98064
FLOCK 4BE-28            
1 60519U 24149BD  26140.20704244  .00013721  00000+0  30436-3 0  9999
2 60519  97.3747 225.5679 0004567  49.6507 310.5140 15.43841503 98127
IPERDRONE.0             
1 60520U 24149BE  26140.22940854  .00053415  00000+0  59674-3 0  9991
2 60520  97.3779 232.1515 0001041 354.9795   5.1452 15.62607062 98542
TRANSPORTER-11 OBJECT BF
1 60521U 24149BF  26140.24375545  .00114518  00000+0  79537-3 0  9995
2 60521  97.3780 234.2675 0001461 271.6379  88.4718 15.74082279 98677
CONNECTA IOT-2          
1 60522U 24149BG  26140.20653274  .00002967  00000+0  12642-3 0  9998
2 60522  97.3840 218.7815 0007963  70.2793 289.9303 15.23706743 97630
PTD-R (TYVAK-0127)      
1 60523U 24149BH  26140.25803589  .00159958  11373-4  53949-3 0  9998
2 60523  97.3792 238.4914 0002231 241.5360 118.5688 15.90024060 98972
CONNECTA IOT-4          
1 60524U 24149BJ  26140.23090985  .00014611  00000+0  35580-3 0  9992
2 60524  97.3795 224.2945 0005590  45.2621 314.9080 15.41017967 98021
ORESAT0.5               
1 60525U 24149BK  26140.19471617  .00014857  00000+0  32823-3 0  9992
2 60525  97.3721 225.7912 0005519  35.6198 324.5418 15.43937874 98150
DEIMOS                  
1 60526U 24149BL  26140.21195067  .00013742  00000+0  31204-3 0  9992
2 60526  97.3781 225.9623 0005758  41.7315 318.4372 15.43136674 98130
CUAVA-2                 
1 60527U 24149BM  26140.19625719  .00008640  00000+0  25332-3 0  9998
2 60527  97.3725 221.6832 0007359  45.1714 315.0126 15.35407160 97876
ERNST                   
1 60528U 24149BN  26140.20794329  .00010037  00000+0  26705-3 0  9993
2 60528  97.3805 223.7352 0006734  49.3473 310.8357 15.38397388 97973
TORO                    
1 60530U 24149BQ  26140.15434633  .00001688  00000+0  15434-3 0  9998
2 60530  97.6792 215.3468 0001919  95.1539 264.9902 14.96307457 95762
HYPSO-2                 
1 60531U 24149BR  26140.15938274  .00002279  00000+0  19473-3 0  9993
2 60531  97.6829 216.8287 0002883  96.8258 263.3292 14.98638016 95851
LEMU NGE                
1 60532U 24149BS  26140.27281313  .00001320  00000+0  12645-3 0  9992
2 60532  97.6846 215.7984 0002638 104.6829 255.4684 14.94819731 95783
LEMUR-2-STELLA          
1 60533U 24149BT  26140.27677231  .00007502  00000+0  45138-3 0  9992
2 60533  97.6733 222.6250 0002229 114.9898 245.1563 15.11124819 96282
