OBJECT_NAME,OBJECT_ID,EPOCH,MEAN_MOTION,ECCENTRICITY,INCLINATION,RA_OF_ASC_NODE,ARG_OF_PERICENTER,MEAN_ANOMALY,EPHEMERIS_TYPE,CLASSIFICATION_TYPE,NORAD_CAT_ID,ELEMENT_SET_NO,REV_AT_EPOCH,BSTAR,MEAN_MOTION_DOT,MEAN_MOTION_DDOT
NUSAT-49 (KLARA DAN VON NEUMANN),2024-149AJ,2026-05-20T05:01:16.411008,15.29978237,.00033136,97.3776,221.6877,69.0348,291.1246,0,U,60500,999,9785,.2171233E-3,.6226E-4,0
FLOCK 4BE-11,2024-149AK,2026-05-20T05:20:10.526784,15.41964299,.00037507,97.3698,224.0723,40.8313,319.3214,0,U,60501,999,9804,.32031561E-3,.13561E-3,0
YAM-7,2024-149AN,2026-05-20T05:24:34.228224,15.31388305,.00044074,97.3782,220.5974,55.0497,305.1158,0,U,60504,999,9777,.17675887E-3,.5281E-4,0
FLOCK 4BE-24,2024-149AP,2026-05-20T06:34:56.160768,15.41929053,.00039316,97.3714,224.3733,49.5190,310.6399,0,U,60505,999,9806,.33994537E-3,.14382E-3,0
LUR-1,2024-149AQ,2026-05-20T04:25:52.673088,15.29697074,.00052674,97.3740,219.2240,59.9899,300.1864,0,U,60506,999,9769,.16944872E-3,.48E-4,0
TANAGER-1,2024-149AR,2026-05-20T07:21:03.589056,15.44636580,.00055167,97.3103,234.4878,53.5239,306.6518,0,U,60507,999,9873,.24562283E-3,.11358E-3,0
EAGLEEYE,2024-149AS,2026-05-20T05:22:57.235584,15.65988359,.00012416,97.3727,232.1279,7.4779,352.6499,0,U,60508,999,9855,.59503765E-3,.60898E-3,0
FLOCK 4BE-29,2024-149AT,2026-05-20T04:13:25.879872,15.43133815,.00034519,97.3807,225.6489,65.3710,294.7897,0,U,60509,999,9809,.29903051E-3,.13158E-3,0
TRANSPORTER-11 OBJECT AU,2024-149AU,2026-05-20T04:17:43.785600,15.39362133,.00042731,97.3729,223.6942,51.5114,308.6515,0,U,60510,999,9800,.28719744E-3,.11144E-3,0
FLOCK 4BE-2,2024-149AV,2026-05-20T04:33:57.641472,15.49582575,.00029121,97.3820,226.7563,58.8073,301.3464,0,U,60511,999,9816,.74577008E-3,.41252E-3,0
FLOCK 4BE-13,2024-149AW,2026-05-20T04:15:38.985120,15.41059384,.00040902,97.3720,224.3158,32.0764,328.0731,0,U,60512,999,9805,.24942602E-3,.10224E-3,0
FLOCK 4BE-27,2024-149AX,2026-05-20T05:07:31.139040,15.33907482,.00048748,97.3824,222.0627,60.3099,299.8628,0,U,60513,999,9785,.19994358E-3,.648E-4,0
FLOCK 4BE-9,2024-149AY,2026-05-20T05:18:15.680448,15.39877453,.00035644,97.3788,224.2411,66.0699,294.0920,0,U,60514,999,9801,.29601903E-3,.11685E-3,0
FLOCK 4BE-6,2024-149BA,2026-05-20T05:28:54.676704,15.38742649,.00042197,97.3788,223.6579,60.0698,300.0966,0,U,60516,999,9797,.29333798E-3,.11156E-3,0
FLOCK 4BE-14,2024-149BB,2026-05-20T04:07:20.716320,15.40044707,.00049868,97.3695,223.7146,55.6424,304.5294,0,U,60517,999,9801,.31280524E-3,.12424E-3,0
FLOCK 4BE-1,2024-149BC,2026-05-20T05:11:24.363744,15.41573054,.00045585,97.3779,224.9384,55.6325,304.5352,0,U,60518,999,9806,.29958078E-3,.12512E-3,0
FLOCK 4BE-28,2024-149BD,2026-05-20T04:58:08.466816,15.43841503,.00045677,97.3747,225.5679,49.6507,310.5140,0,U,60519,999,9812,.30436374E-3,.13721E-3,0
IPERDRONE.0,2024-149BE,2026-05-20T05:30:20.897856,15.62607062,.00010416,97.3779,232.1515,354.9795,5.1452,0,U,60520,999,9854,.59674289E-3,.53415E-3,0
TRANSPORTER-11 OBJECT BF,2024-149BF,2026-05-20T05:51:00.470880,15.74082279,.00014611,97.3780,234.2675,271.6379,88.4718,0,U,60521,999,9867,.79536818E-3,.114518E-2,0
CONNECTA IOT-2,2024-149BG,2026-05-20T04:57:24.428736,15.23706743,.00079631,97.3840,218.7815,70.2793,289.9303,0,U,60522,999,9763,.12642487E-3,.2967E-4,0
PTD-R (TYVAK-0127),2024-149BH,2026-05-20T06:11:34.300896,15.90024060,.00022311,97.3792,238.4914,241.5360,118.5688,0,U,60523,999,9897,.5394899E-3,.159958E-2,.11372645E-4
CONNECTA IOT-4,2024-149BJ,2026-05-20T05:32:30.611040,15.41017967,.00055905,97.3795,224.2945,45.2621,314.9080,0,U,60524,999,9802,.35579958E-3,.14611E-3,0
ORESAT0.5,2024-149BK,2026-05-20T04:40:23.477088,15.43937874,.0005519,97.3721,225.7912,35.6198,324.5418,0,U,60525,999,9815,.32823138E-3,.14857E-3,0
DEIMOS,2024-149BL,2026-05-20T05:05:12.537888,15.43136674,.00057586,97.3781,225.9623,41.7315,318.4372,0,U,60526,999,9813,.31204132E-3,.13742E-3,0
CUAVA-2,2024-149BM,2026-05-20T04:42:36.621216,15.35407160,.00073591,97.3725,221.6832,45.1714,315.0126,0,U,60527,999,9787,.25332045E-3,.864E-4,0
ERNST,2024-149BN,2026-05-20T04:59:26.300256,15.38397388,.00067344,97.3805,223.7352,49.3473,310.8357,0,U,60528,999,9797,.26704533E-3,.10037E-3,0
TORO,2024-149BQ,2026-05-20T03:42:15.522912,14.96307457,.00019198,97.6792,215.3468,95.1539,264.9902,0,U,60530,999,9576,.15433864E-3,.1688E-4,0
HYPSO-2,2024-149BR,2026-05-20T03:49:30.668736,14.98638016,.00028839,97.6829,216.8287,96.8258,263.3292,0,U,60531,999,9585,.19473317E-3,.2279E-4,0
LEMU NGE,2024-149BS,2026-05-20T06:32:51.054432,14.94819731,.00026384,97.6846,215.7984,104.6829,255.4684,0,U,60532,999,9578,.12644948E-3,.132E-4,0
LEMUR-2-STELLA,2024-149BT,2026-05-20T06:38:33.127584,15.11124819,.00022296,97.6733,222.6250,114.9898,245.1563,0,U,60533,999,9628,.45138246E-3,.7502E-4,0
